{"type": "FeatureCollection", "features": [ {"type": "Feature", "properties": {"norad_id": 39019, "name": "PLEIADES 1B", "group": "resource", "lat": -78.1390426602054, "lon": 110.44833898533392, "alt_km": 705.9734731173758, "timestamp": "2025-12-20T16:47:35.948337+00:00", "meta": {"OBJECT_NAME": "PLEIADES 1B", "OBJECT_ID": "2012-068A", "EPOCH": "2025-12-20T12:13:36.236352", "MEAN_MOTION": 14.58559789, "ECCENTRICITY": 0.0001188, "INCLINATION": 98.1793, "RA_OF_ASC_NODE": 67.0391, "ARG_OF_PERICENTER": 84.4264, "MEAN_ANOMALY": 275.7071, "EPHEMERIS_TYPE": 0, "CLASSIFICATION_TYPE": "U", "NORAD_CAT_ID": 39019, "ELEMENT_SET_NO": 999, "REV_AT_EPOCH": 69480, "BSTAR": 9.6428e-05, "MEAN_MOTION_DOT": 4.03e-06, "MEAN_MOTION_DDOT": 0}, "tle": {"line1": "1 39019U 12068A   25354.50944718  .00000403  00000+0  96428-4 0  9995", "line2": "2 39019  98.1793  67.0391 0001188  84.4264 275.7071 14.58559789694800"}}, "geometry": {"type": "Point", "coordinates": [110.44833898533392, -78.1390426602054]}}, {"type": "Feature", "properties": {"norad_id": 39030, "name": "GOKTURK 2", "group": "resource", "lat": -71.14621062642324, "lon": -7.3433768519808185, "alt_km": 652.2187973883638, "timestamp": "2025-12-20T16:47:35.948347+00:00", "meta": {"OBJECT_NAME": "GOKTURK 2", "OBJECT_ID": "2012-073A", "EPOCH": "2025-12-20T12:23:44.934720", "MEAN_MOTION": 14.75299966, "ECCENTRICITY": 0.0001272, "INCLINATION": 97.6887, "RA_OF_ASC_NODE": 195.7872, "ARG_OF_PERICENTER": 109.6874, "MEAN_ANOMALY": 250.4473, "EPHEMERIS_TYPE": 0, "CLASSIFICATION_TYPE": "U", "NORAD_CAT_ID": 39030, "ELEMENT_SET_NO": 999, "REV_AT_EPOCH": 69816, "BSTAR": 2.9576e-05, "MEAN_MOTION_DOT": 1.53e-06, "MEAN_MOTION_DDOT": 0}, "tle": {"line1": "1 39030U 12073A   25354.51649230  .00000153  00000+0  29576-4 0  9998", "line2": "2 39030  97.6887 195.7872 0001272 109.6874 250.4473 14.75299966698161"}}, "geometry": {"type": "Point", "coordinates": [-7.3433768519808185, -71.14621062642324]}}, {"type": "Feature", "properties": {"norad_id": 39084, "name": "LANDSAT 8", "group": "resource", "lat": 46.679907929462395, "lon": 53.85274883087309, "alt_km": 697.8507915818973, "timestamp": "2025-12-20T16:47:35.948357+00:00", "meta": {"OBJECT_NAME": "LANDSAT 8", "OBJECT_ID": "2013-008A", "EPOCH": "2025-12-20T11:37:57.833760", "MEAN_MOTION": 14.57109885, "ECCENTRICITY": 0.0001086, "INCLINATION": 98.2063, "RA_OF_ASC_NODE": 62.4435, "ARG_OF_PERICENTER": 90.7972, "MEAN_ANOMALY": 269.3351, "EPHEMERIS_TYPE": 0, "CLASSIFICATION_TYPE": "U", "NORAD_CAT_ID": 39084, "ELEMENT_SET_NO": 999, "REV_AT_EPOCH": 67187, "BSTAR": 7.7058e-05, "MEAN_MOTION_DOT": 3.02e-06, "MEAN_MOTION_DDOT": 0}, "tle": {"line1": "1 39084U 13008A   25354.48469715  .00000302  00000+0  77058-4 0  9994", "line2": "2 39084  98.2063  62.4435 0001086  90.7972 269.3351 14.57109885671873"}}, "geometry": {"type": "Point", "coordinates": [53.85274883087309, 46.679907929462395]}}, {"type": "Feature", "properties": {"norad_id": 39086, "name": "SARAL", "group": "resource", "lat": 55.311986849297774, "lon": 165.97178522258204, "alt_km": 775.5399930095791, "timestamp": "2025-12-20T16:47:35.948367+00:00", "meta": {"OBJECT_NAME": "SARAL", "OBJECT_ID": "2013-009A", "EPOCH": "2025-12-20T11:30:12.956832", "MEAN_MOTION": 14.32759503, "ECCENTRICITY": 0.0002958, "INCLINATION": 98.5502, "RA_OF_ASC_NODE": 178.3087, "ARG_OF_PERICENTER": 94.0082, "MEAN_ANOMALY": 266.144, "EPHEMERIS_TYPE": 0, "CLASSIFICATION_TYPE": "U", "NORAD_CAT_ID": 39086, "ELEMENT_SET_NO": 999, "REV_AT_EPOCH": 67001, "BSTAR": 4.5792e-05, "MEAN_MOTION_DOT": 8.1e-07, "MEAN_MOTION_DDOT": 0}, "tle": {"line1": "1 39086U 13009A   25354.47931663  .00000081  00000+0  45792-4 0  9996", "line2": "2 39086  98.5502 178.3087 0002958  94.0082 266.1440 14.32759503670014"}}, "geometry": {"type": "Point", "coordinates": [165.97178522258204, 55.311986849297774]}}, {"type": "Feature", "properties": {"norad_id": 39150, "name": "GAOFEN-1", "group": "resource", "lat": 5.7778371968970355, "lon": 64.41037580641287, "alt_km": 647.624262310831, "timestamp": "2025-12-20T16:47:35.948377+00:00", "meta": {"OBJECT_NAME": "GAOFEN-1", "OBJECT_ID": "2013-018A", "EPOCH": "2025-12-20T11:53:15.158976", "MEAN_MOTION": 14.76493019, "ECCENTRICITY": 0.0018375, "INCLINATION": 97.9325, "RA_OF_ASC_NODE": 65.018, "ARG_OF_PERICENTER": 119.4115, "MEAN_ANOMALY": 240.8932, "EPHEMERIS_TYPE": 0, "CLASSIFICATION_TYPE": "U", "NORAD_CAT_ID": 39150, "ELEMENT_SET_NO": 999, "REV_AT_EPOCH": 68187, "BSTAR": 0.00011126, "MEAN_MOTION_DOT": 7.26e-06, "MEAN_MOTION_DDOT": 0}, "tle": {"line1": "1 39150U 13018A   25354.49531434  .00000726  00000+0  11126-3 0  9991", "line2": "2 39150  97.9325  65.0180 0018375 119.4115 240.8932 14.76493019681873"}}, "geometry": {"type": "Point", "coordinates": [64.41037580641287, 5.7778371968970355]}}, {"type": "Feature", "properties": {"norad_id": 39160, "name": "VNREDSAT 1", "group": "resource", "lat": 79.61123538733791, "lon": -80.75284526453282, "alt_km": 669.0811891417807, "timestamp": "2025-12-20T16:47:35.948387+00:00", "meta": {"OBJECT_NAME": "VNREDSAT 1", "OBJECT_ID": "2013-021B", "EPOCH": "2025-12-20T11:26:08.687616", "MEAN_MOTION": 14.64934829, "ECCENTRICITY": 0.000122, "INCLINATION": 97.937, "RA_OF_ASC_NODE": 49.4808, "ARG_OF_PERICENTER": 81.5401, "MEAN_ANOMALY": 278.5941, "EPHEMERIS_TYPE": 0, "CLASSIFICATION_TYPE": "U", "NORAD_CAT_ID": 39160, "ELEMENT_SET_NO": 999, "REV_AT_EPOCH": 67412, "BSTAR": 0.00016121, "MEAN_MOTION_DOT": 8.17e-06, "MEAN_MOTION_DDOT": 0}, "tle": {"line1": "1 39160U 13021B   25354.47648944  .00000817  00000+0  16121-3 0  9990", "line2": "2 39160  97.9370  49.4808 0001220  81.5401 278.5941 14.64934829674129"}}, "geometry": {"type": "Point", "coordinates": [-80.75284526453282, 79.61123538733791]}}, {"type": "Feature", "properties": {"norad_id": 39227, "name": "ARIRANG-5 (KOMPSAT-5)", "group": "resource", "lat": -47.38780746193173, "lon": -9.473298175626113, "alt_km": 562.0855458619944, "timestamp": "2025-12-20T16:47:35.948398+00:00", "meta": {"OBJECT_NAME": "ARIRANG-5 (KOMPSAT-5)", "OBJECT_ID": "2013-042A", "EPOCH": "2025-12-20T12:35:28.709376", "MEAN_MOTION": 15.04538886, "ECCENTRICITY": 0.0003404, "INCLINATION": 97.6154, "RA_OF_ASC_NODE": 178.7168, "ARG_OF_PERICENTER": 36.9917, "MEAN_ANOMALY": 323.1543, "EPHEMERIS_TYPE": 0, "CLASSIFICATION_TYPE": "U", "NORAD_CAT_ID": 39227, "ELEMENT_SET_NO": 999, "REV_AT_EPOCH": 67699, "BSTAR": 0.00013671, "MEAN_MOTION_DOT": 1.855e-05, "MEAN_MOTION_DDOT": 0}, "tle": {"line1": "1 39227U 13042A   25354.52463784  .00001855  00000+0  13671-3 0  9990", "line2": "2 39227  97.6154 178.7168 0003404  36.9917 323.1543 15.04538886676997"}}, "geometry": {"type": "Point", "coordinates": [-9.473298175626113, -47.38780746193173]}}, {"type": "Feature", "properties": {"norad_id": 39418, "name": "SKYSAT-A", "group": "resource", "lat": 80.47833231092699, "lon": -6.219450530491006, "alt_km": 531.9010365401773, "timestamp": "2025-12-20T16:47:35.948408+00:00", "meta": {"OBJECT_NAME": "SKYSAT-A", "OBJECT_ID": "2013-066C", "EPOCH": "2025-12-20T02:07:24.987360", "MEAN_MOTION": 15.11653345, "ECCENTRICITY": 0.0021262, "INCLINATION": 97.4098, "RA_OF_ASC_NODE": 44.0738, "ARG_OF_PERICENTER": 209.9149, "MEAN_ANOMALY": 150.0868, "EPHEMERIS_TYPE": 0, "CLASSIFICATION_TYPE": "U", "NORAD_CAT_ID": 39418, "ELEMENT_SET_NO": 999, "REV_AT_EPOCH": 66141, "BSTAR": 0.00017332643, "MEAN_MOTION_DOT": 2.899e-05, "MEAN_MOTION_DDOT": 0}, "tle": {"line1": "1 39418U 13066C   25354.08848365  .00002899  00000+0  17333-3 0  9999", "line2": "2 39418  97.4098  44.0738 0021262 209.9149 150.0868 15.11653345661417"}}, "geometry": {"type": "Point", "coordinates": [-6.219450530491006, 80.47833231092699]}}, {"type": "Feature", "properties": {"norad_id": 39419, "name": "DUBAISAT-2", "group": "resource", "lat": 45.730472738440874, "lon": 172.56991274494206, "alt_km": 543.4916708529972, "timestamp": "2025-12-20T16:47:35.948418+00:00", "meta": {"OBJECT_NAME": "DUBAISAT-2", "OBJECT_ID": "2013-066D", "EPOCH": "2025-12-20T13:01:04.172160", "MEAN_MOTION": 15.08423501, "ECCENTRICITY": 0.0010014, "INCLINATION": 97.4438, "RA_OF_ASC_NODE": 344.7096, "ARG_OF_PERICENTER": 291.4901, "MEAN_ANOMALY": 68.5259, "EPHEMERIS_TYPE": 0, "CLASSIFICATION_TYPE": "U", "NORAD_CAT_ID": 39419, "ELEMENT_SET_NO": 999, "REV_AT_EPOCH": 65944, "BSTAR": 0.00021628, "MEAN_MOTION_DOT": 3.308e-05, "MEAN_MOTION_DDOT": 0}, "tle": {"line1": "1 39419U 13066D   25354.54240940  .00003308  00000+0  21628-3 0  9994", "line2": "2 39419  97.4438 344.7096 0010014 291.4901  68.5259 15.08423501659440"}}, "geometry": {"type": "Point", "coordinates": [172.56991274494206, 45.730472738440874]}}, {"type": "Feature", "properties": {"norad_id": 39574, "name": "GPM-CORE", "group": "resource", "lat": -57.63948047938271, "lon": 53.534160014093395, "alt_km": 432.3286800979786, "timestamp": "2025-12-20T16:47:35.948429+00:00", "meta": {"OBJECT_NAME": "GPM-CORE", "OBJECT_ID": "2014-009C", "EPOCH": "2025-12-20T11:03:28.031040", "MEAN_MOTION": 15.4457481, "ECCENTRICITY": 0.0009368, "INCLINATION": 64.9718, "RA_OF_ASC_NODE": 186.8259, "ARG_OF_PERICENTER": 248.1958, "MEAN_ANOMALY": 111.8186, "EPHEMERIS_TYPE": 0, "CLASSIFICATION_TYPE": "U", "NORAD_CAT_ID": 39574, "ELEMENT_SET_NO": 999, "REV_AT_EPOCH": 67020, "BSTAR": 0.00012372, "MEAN_MOTION_DOT": 5.535e-05, "MEAN_MOTION_DDOT": 0}, "tle": {"line1": "1 39574U 14009C   25354.46074110  .00005535  00000+0  12372-3 0  9999", "line2": "2 39574  64.9718 186.8259 0009368 248.1958 111.8186 15.44574810670207"}}, "geometry": {"type": "Point", "coordinates": [53.534160014093395, -57.63948047938271]}}]}